stk.v.4.3 

BEGIN Ephemeris 
 
NumberOfEphemerisPoints		146 
ScenarioEpoch	    2 Jan 2020 13:16: 3.658368587 
InterpolationMethod		Lagrange 
InterpolationOrder		5 
CentralBody				Earth 
CoordinateSystem			TEME 
CoordinateSystemEpoch	  2 Jan 2020 13:16: 3.658368587 
DistanceUnit			Kilometers 
 
EphemerisTimePosVel 
 
       0.00000000   -4860.42866374   -5256.31065409       0.03905330  0.350336636 -0.311218091  7.448510783
 END Ephemeris 
